$$SOE
2460147.500000000, A.D. 2023-Jul-22 00:00:00.0000, 4.218520194094775E+08, -1.569786337934589E+08, -1.260751401146814E+08,
2460154.500000000, A.D. 2023-Jul-29 00:00:00.0000, 4.257246983467370E+08, -1.476315967564450E+08, -1.238039622472292E+08,
2460161.500000000, A.D. 2023-Aug-05 00:00:00.0000, 4.293948287471498E+08, -1.382142371732762E+08, -1.214738601115256E+08,
2460168.500000000, A.D. 2023-Aug-12 00:00:00.0000, 4.328604861570914E+08, -1.287309775044735E+08, -1.190858921765785E+08,
2460175.500000000, A.D. 2023-Aug-19 00:00:00.0000, 4.361198510230156E+08, -1.191862827455854E+08, -1.166411492471860E+08,
2460182.500000000, A.D. 2023-Aug-26 00:00:00.0000, 4.391712101744368E+08, -1.095846576489166E+08, -1.141407538755479E+08,
2460189.500000000, A.D. 2023-Sep-02 00:00:00.0000, 4.420129582038533E+08, -9.993064397203650E+07, -1.115858597481967E+08,
2460196.500000000, A.D. 2023-Sep-09 00:00:00.0000, 4.446435987762716E+08, -9.022881779711065E+07, -1.089776510544904E+08,
2460203.500000000, A.D. 2023-Sep-16 00:00:00.0000, 4.470617460327772E+08, -8.048378698117185E+07, -1.063173418564492E+08,
2460210.500000000, A.D. 2023-Sep-23 00:00:00.0000, 4.492661265010577E+08, -7.070018845174611E+07, -1.036061754746386E+08,
2460217.500000000, A.D. 2023-Sep-30 00:00:00.0000, 4.512555811719363E+08, -6.088268415770020E+07, -1.008454237624733E+08,
2460224.500000000, A.D. 2023-Oct-07 00:00:00.0000, 4.530290653898925E+08, -5.103595622056507E+07, -9.803638609947518E+07,
2460231.500000000, A.D. 2023-Oct-14 00:00:00.0000, 4.545856475982766E+08, -4.116470460464868E+07, -9.518038847147191E+07,
2460238.500000000, A.D. 2023-Oct-21 00:00:00.0000, 4.559245101657253E+08, -3.127364570775599E+07, -9.227878280357501E+07,
2460245.500000000, A.D. 2023-Oct-28 00:00:00.0000, 4.570449508677385E+08, -2.136750961583798E+07, -8.933294623114640E+07,
2460252.500000000, A.D. 2023-Nov-04 00:00:00.0000, 4.579463837726213E+08, -1.145103679568513E+07, -8.634428025781015E+07,
2460259.500000000, A.D. 2023-Nov-11 00:00:00.0000, 4.586283397085221E+08, -1.528974829477832E+06, -8.331420986649877E+07,
2460266.500000000, A.D. 2023-Nov-18 00:00:00.0000, 4.590904665301059E+08, 8.393924740672044E+06, -8.024418260953027E+07,
2460273.500000000, A.D. 2023-Nov-25 00:00:00.0000, 4.593325292568405E+08, 1.831290947706718E+07, -7.713566768319440E+07,
2460280.500000000, A.D. 2023-Dec-02 00:00:00.0000, 4.593544101105155E+08, 2.822322900484741E+07, -7.399015499110800E+07,
2460287.500000000, A.D. 2023-Dec-09 00:00:00.0000, 4.591561085295681E+08, 3.812013780183086E+07, -7.080915420920905E+07,
2460294.500000000, A.D. 2023-Dec-16 00:00:00.0000, 4.587377414473796E+08, 4.799889782821086E+07, -6.759419387872899E+07,
2460301.500000000, A.D. 2023-Dec-23 00:00:00.0000, 4.580995441815575E+08, 5.785478167957298E+07, -6.434682050379188E+07,
2460308.500000000, A.D. 2023-Dec-30 00:00:00.0000, 4.572418705930645E+08, 6.768307731010894E+07, -6.106859744597384E+07,
2460315.500000000, A.D. 2024-Jan-06 00:00:00.0000, 4.561651907451482E+08, 7.747909196274632E+07, -5.776110364793068E+07,
2460322.500000000, A.D. 2024-Jan-13 00:00:00.0000, 4.548700892366073E+08, 8.723815349441083E+07, -5.442593262651851E+07,
2460329.500000000, A.D. 2024-Jan-20 00:00:00.0000, 4.533572654320412E+08, 9.695561217670959E+07, -5.106469159676529E+07,
2460336.500000000, A.D. 2024-Jan-27 00:00:00.0000, 4.516275335603501E+08, 1.066268436212202E+08, -4.767900048865429E+07,
2460343.500000000, A.D. 2024-Feb-03 00:00:00.0000, 4.496818222543206E+08, 1.162472518776435E+08, -4.427049089649764E+07,
2460350.500000000, A.D. 2024-Feb-10 00:00:00.0000, 4.475211738100481E+08, 1.258122724103614E+08, -4.084080501167539E+07,
2460357.500000000, A.D. 2024-Feb-17 00:00:00.0000, 4.451467433062947E+08, 1.353173749580056E+08, -3.739159455229536E+07,
2460364.500000000, A.D. 2024-Feb-24 00:00:00.0000, 4.425597976212363E+08, 1.447580662876453E+08, -3.392451969329971E+07,
2460371.500000000, A.D. 2024-Mar-02 00:00:00.0000, 4.397617143777305E+08, 1.541298928080534E+08, -3.044124800376454E+07,
2460378.500000000, A.D. 2024-Mar-09 00:00:00.0000, 4.367539809580951E+08, 1.634284429762127E+08, -2.694345341064791E+07,
2460385.500000000, A.D. 2024-Mar-16 00:00:00.0000, 4.335381939859196E+08, 1.726493496908794E+08, -2.343281521048219E+07,
2460392.500000000, A.D. 2024-Mar-23 00:00:00.0000, 4.301160591721514E+08, 1.817882937785560E+08, -1.991101703010701E+07,
2460399.500000000, A.D. 2024-Mar-30 00:00:00.0000, 4.264893892850763E+08, 1.908410085434481E+08, -1.637974553413979E+07,
2460406.500000000, A.D. 2024-Apr-06 00:00:00.0000, 4.226601005048046E+08, 1.998032820129981E+08, -1.284068917914189E+07,
2460413.500000000, A.D. 2024-Apr-13 00:00:00.0000, 4.186302107177042E+08, 2.086709577119737E+08, -9.295537273153678E+06,
2460420.500000000, A.D. 2024-Apr-20 00:00:00.0000, 4.144018388002702E+08, 2.174399366383010E+08, -5.745979035556272E+06,
2460427.500000000, A.D. 2024-Apr-27 00:00:00.0000, 4.099772033776704E+08, 2.261061798767844E+08, -2.193702564938635E+06,
2460434.500000000, A.D. 2024-May-04 00:00:00.0000, 4.053586211476563E+08, 2.346657111446010E+08, 1.359606218521520E+06,
2460441.500000000, A.D. 2024-May-11 00:00:00.0000, 4.005485050103019E+08, 2.431146191637630E+08, 4.912264624992445E+06,
2460448.500000000, A.D. 2024-May-18 00:00:00.0000, 3.955493620868171E+08, 2.514490598796257E+08, 8.462594234450847E+06,
2460455.500000000, A.D. 2024-May-25 00:00:00.0000, 3.903637916532291E+08, 2.596652585170152E+08, 1.200892191978019E+07,
2460462.500000000, A.D. 2024-Jun-01 00:00:00.0000, 3.849944830508344E+08, 2.677595114166672E+08, 1.554958084239404E+07,
2460469.500000000, A.D. 2024-Jun-08 00:00:00.0000, 3.794442138236193E+08, 2.757281876297908E+08, 1.908291139520249E+07,
2460476.500000000, A.D. 2024-Jun-15 00:00:00.0000, 3.737158484872428E+08, 2.835677308156029E+08, 2.260726210024065E+07,
2460483.500000000, A.D. 2024-Jun-22 00:00:00.0000, 3.678123369279592E+08, 2.912746626149162E+08, 2.612099064855012E+07,
2460490.500000000, A.D. 2024-Jun-29 00:00:00.0000, 3.617367103120319E+08, 2.988455856783739E+08, 2.962246512770538E+07,
2460497.500000000, A.D. 2024-Jul-06 00:00:00.0000, 3.554920771557561E+08, 3.062771838790250E+08, 3.311006499224259E+07,
2460504.500000000, A.D. 2024-Jul-13 00:00:00.0000, 3.490816215098521E+08, 3.135662225314265E+08, 3.658218182832646E+07,
2460511.500000000, A.D. 2024-Jul-20 00:00:00.0000, 3.425086012743691E+08, 3.207095497639751E+08, 4.003722018781897E+07,
2460518.500000000, A.D. 2024-Jul-27 00:00:00.0000, 3.357763459902406E+08, 3.277040980845007E+08, 4.347359847276837E+07,
2460525.500000000, A.D. 2024-Aug-03 00:00:00.0000, 3.288882543832589E+08, 3.345468857641317E+08, 4.688974981389572E+07,
2460532.500000000, A.D. 2024-Aug-10 00:00:00.0000, 3.218477918292354E+08, 3.412350180350997E+08, 5.028412292670089E+07,
2460539.500000000, A.D. 2024-Aug-17 00:00:00.0000, 3.146584877906564E+08, 3.477656881245135E+08, 5.365518294178541E+07,
2460546.500000000, A.D. 2024-Aug-24 00:00:00.0000, 3.073239332556247E+08, 3.541361781024025E+08, 5.700141220417246E+07,
2460553.500000000, A.D. 2024-Aug-31 00:00:00.0000, 2.998477782976952E+08, 3.603438594834026E+08, 6.032131102519999E+07,
2460560.500000000, A.D. 2024-Sep-07 00:00:00.0000, 2.922337301254282E+08, 3.663861937096609E+08, 6.361339836310156E+07,
2460567.500000000, A.D. 2024-Sep-14 00:00:00.0000, 2.844855517106622E+08, 3.722607335115089E+08, 6.687621250509092E+07,
2460574.500000000, A.D. 2024-Sep-21 00:00:00.0000, 2.766070589689531E+08, 3.779651255576539E+08, 7.010831196957372E+07,
2460581.500000000, A.D. 2024-Sep-28 00:00:00.0000, 2.686021160055538E+08, 3.834971111684726E+08, 7.330827640872549E+07,
2460588.500000000, A.D. 2024-Oct-05 00:00:00.0000, 2.604746321007215E+08, 3.888545250975680E+08, 7.647470717512286E+07,
2460595.500000000, A.D. 2024-Oct-12 00:00:00.0000, 2.522285600780698E+08, 3.940352953624686E+08, 7.960622782858913E+07,
2460602.500000000, A.D. 2024-Oct-19 00:00:00.0000, 2.438678943073559E+08, 3.990374438538827E+08, 8.270148472106773E+07,
2460609.500000000, A.D. 2024-Oct-26 00:00:00.0000, 2.353966683117487E+08, 4.038590869234171E+08, 8.575914759667629E+07,
2460616.500000000, A.D. 2024-Nov-02 00:00:00.0000, 2.268189522398013E+08, 4.084984358029627E+08, 8.877791017102706E+07,
2460623.500000000, A.D. 2024-Nov-09 00:00:00.0000, 2.181388503016926E+08, 4.129537968779378E+08, 9.175649068245068E+07,
2460630.500000000, A.D. 2024-Nov-16 00:00:00.0000, 2.093604981984644E+08, 4.172235718160257E+08, 9.469363241252890E+07,
2460637.500000000, A.D. 2024-Nov-23 00:00:00.0000, 2.004880605937206E+08, 4.213062575028516E+08, 9.758810416727093E+07,
2460644.500000000, A.D. 2024-Nov-30 00:00:00.0000, 1.915257288383041E+08, 4.252004457435534E+08, 1.004387006961143E+08,
2460651.500000000, A.D. 2024-Dec-07 00:00:00.0000, 1.824777193696726E+08, 4.289048231531009E+08, 1.032442430446652E+08,
2460658.500000000, A.D. 2024-Dec-14 00:00:00.0000, 1.733482721001501E+08, 4.324181724613700E+08, 1.060035790044339E+08,
2460665.500000000, A.D. 2024-Dec-21 00:00:00.0000, 1.641416464773130E+08, 4.357393739926030E+08, 1.087155837703701E+08,
2460672.500000000, A.D. 2024-Dec-28 00:00:00.0000, 1.548621171892636E+08, 4.388674043542348E+08, 1.113791603831676E+08,
2460679.500000000, A.D. 2025-Jan-04 00:00:00.0000, 1.455139721152375E+08, 4.418013347158139E+08, 1.139932399138571E+08,
2460686.500000000, A.D. 2025-Jan-11 00:00:00.0000, 1.361015107043426E+08, 4.445403303393564E+08, 1.165567816938727E+08,
2460693.500000000, A.D. 2025-Jan-18 00:00:00.0000, 1.266290418677570E+08, 4.470836504423895E+08, 1.190687735994196E+08,
2460700.500000000, A.D. 2025-Jan-25 00:00:00.0000, 1.171008816292417E+08, 4.494306479196532E+08, 1.215282323288839E+08,
2460707.500000000, A.D. 2025-Feb-01 00:00:00.0000, 1.075213507242841E+08, 4.515807688944881E+08, 1.239342036535132E+08,
2460714.500000000, A.D. 2025-Feb-08 00:00:00.0000, 9.789477220685336E+07, 4.535335521216166E+08, 1.262857626381666E+08,
$$EOE